ONEWEB-0370             
1 49296U 21090T   26159.08159495  .00000013  00000+0  68544-6 0  9992
2 49296  87.9192 276.2549 0002088 107.3418 252.7944 13.20769891228668
ONEWEB-0371             
1 49297U 21090U   26159.16765675 -.00000023  00000+0 -90037-4 0  9998
2 49297  87.9170 306.7634 0001786 100.2510 259.8824 13.19723815225260
ONEWEB-0372             
1 49298U 21090V   26159.07136000 -.00000025  00000+0 -92928-4 0  9996
2 49298  87.9189 276.2585 0001979 100.7989 259.3367 13.20770808228633
ONEWEB-0373             
1 49299U 21090W   26158.79373036  .00000004  00000+0 -22272-4 0  9998
2 49299  87.9192 276.3146 0002090 100.7054 259.4314 13.20770022229788
ONEWEB-0374             
1 49300U 21090X   26159.06071867  .00000138  00000+0  33669-3 0  9997
2 49300  87.8960 291.5162 0002298  87.8589 272.2803 13.14502893226367
ONEWEB-0375             
1 49301U 21090Y   26158.78194992  .00000075  00000+0  15176-3 0  9994
2 49301  87.9192 276.3081 0002408  91.4233 268.7176 13.20771829229288
ONEWEB-0376             
1 49302U 21090Z   26158.93862968 -.00000012  00000+0 -62104-4 0  9994
2 49302  87.9172 306.8087 0001624  96.5746 263.5571 13.19724844225232
ONEWEB-0377             
1 49303U 21090AA  26159.07165189  .00000016  00000+0  68926-5 0  9993
2 49303  87.9190 276.2525 0002175 100.2820 259.8559 13.20772090229313
ONEWEB-0378             
1 49304U 21090AB  26158.78880683  .00000030  00000+0  42991-4 0  9993
2 49304  87.9187 276.3141 0002022  96.2956 263.8408 13.20769494228546
ONEWEB-0379             
1 49305U 21090AC  26159.13207385  .00000146  00000+0  35938-3 0  9996
2 49305  87.8959 291.5131 0001918  95.8522 264.2826 13.14501537226371
ONEWEB-0380             
1 49306U 21090AD  26159.16292992 -.00000096  00000+0 -27102-3 0  9998
2 49306  87.9164 306.7700 0002043  97.9752 262.1613 13.19724312225238
ONEWEB-0381             
1 49307U 21090AE  26159.06814510  .00000011  00000+0 -49887-5 0  9996
2 49307  87.9193 276.2579 0002147  94.5468 265.5911 13.20771472228623
ONEWEB-0382             
1 49308U 21090AF  26158.75162618  .00000054  00000+0  10065-3 0  9997
2 49308  87.9189 276.3154 0002063  92.5922 267.5447 13.20769914228577
ONEWEB-0383             
1 49309U 21090AG  26159.12571473  .00000168  00000+0  41938-3 0  9992
2 49309  87.8964 291.5054 0001873  94.5867 265.5477 13.14504194226405
ONEWEB-0384             
1 49310U 21090AH  26158.89208200  .00000035  00000+0  53276-4 0  9994
2 49310  87.9191 276.3309 0002133  87.5628 272.5749 13.20811675228607
ONEWEB-0385             
1 49311U 21090AJ  26158.89643135  .00000128  00000+0  28249-3 0  9999
2 49311  87.9188 276.2918 0002050  94.9823 265.1544 13.20772081228570
ONEWEB-0386             
1 49312U 21090AK  26159.06477685  .00000002  00000+0 -26936-4 0  9999
2 49312  87.9194 276.2488 0002009  92.8914 267.2449 13.20770709228619
ONEWEB-0387             
1 49313U 21090AL  26158.74660025  .00000086  00000+0  18064-3 0  9999
2 49313  87.9179 276.3357 0002312  99.4672 260.6722 13.20771996228575
ONEWEB-0388             
1 49314U 21090AM  26159.15819228 -.00000008  00000+0 -52320-4 0  9997
2 49314  87.9164 306.7691 0001933  93.2043 266.9311 13.19723995225227
ONEWEB-0389             
1 50469U 21132A   26159.01043612  .00000021  00000+0  20602-4 0  9999
2 50469  87.9140   7.6942 0002215  84.7260 275.4124 13.17647830216879
ONEWEB-0390             
1 50470U 21132B   26159.01212307  .00000077  00000+0  16596-3 0  9997
2 50470  87.9140   7.6946 0001886  93.8092 266.3255 13.17647799216870
ONEWEB-0391             
1 50471U 21132C   26159.08974815  .00000013  00000+0  55586-6 0  9999
2 50471  87.9140   7.6888 0002681  91.7083 268.4356 13.17647608216882
ONEWEB-0392             
1 50472U 21132D   26159.12013024 -.00009852  00000+0 -25415-1 0  9996
2 50472  87.9151   7.6501 0002436  86.6371 273.5039 13.17700220216928
ONEWEB-0393             
1 50473U 21132E   26159.09566117 -.00000024  00000+0 -95129-4 0  9993
2 50473  87.9140   7.6731 0002051  86.1302 274.0063 13.17649308216915
ONEWEB-0394             
1 50474U 21132F   26158.91704094  .00000115  00000+0  25796-3 0  9993
2 50474  87.9169 337.2869 0002027  87.3070 272.8294 13.18685022220370
ONEWEB-0395             
1 50475U 21132G   26159.16402929  .00000199  00000+0  52701-3 0  9992
2 50475  87.8890  22.8636 0001937  89.8922 270.2428 13.11415124214531
ONEWEB-0396             
1 50476U 21132H   26159.06204932 -.00000048  00000+0 -15330-3 0  9998
2 50476  87.9170 337.2703 0001961  88.2998 271.8359 13.18684503220437
ONEWEB-0397             
1 50477U 21132J   26159.00135233 -.00000016  00000+0 -72852-4 0  9998
2 50477  87.9169 337.2828 0001951  83.9131 276.2223 13.18684734220406
ONEWEB-0398             
1 50478U 21132K   26159.13180321  .00000031  00000+0  50750-4 0  9999
2 50478  87.8903  22.8601 0001839  93.8521 266.2817 13.11420380214427
ONEWEB-0399             
1 50479U 21132L   26159.11823795 -.00000414  00000+0 -12028-2 0  9998
2 50479  87.8904  22.8739 0002278  77.8535 282.2848 13.11418568214412
ONEWEB-0400             
1 50480U 21132M   26159.05531323 -.00000071  00000+0 -21244-3 0  9996
2 50480  87.9168 337.2617 0001855  96.3885 263.7459 13.18685170220409
